[
    {
        "Altitude(m)": 610405.3091436896,
        "Argument of Periapsis(deg)": 0.0,
        "Eccentricity": 0.0,
        "Inclination(deg)": 60.0,
        "Latitude(deg)": 52.11123326128905,
        "Longitude(deg)": 2.4772923726728178,
        "Mean Anomaly(deg)": -245.4545,
        "RAAN(deg)": 330.0,
        "Satellite Name": "Test1 1459",
        "Satellite Number": 1459,
        "Semi-Major Axis(m)": 6980739.136638005,
        "Time(s)": 0
    },
    {
        "Altitude(m)": 610321.8825589258,
        "Argument of Periapsis(deg)": 0.00010418945913296404,
        "Eccentricity": 0.0,
        "Inclination(deg)": 60.0,
        "Latitude(deg)": 51.74594955535476,
        "Longitude(deg)": 3.2461871997889533,
        "Mean Anomaly(deg)": -244.83439385453815,
        "RAAN(deg)": 329.9995799508602,
        "Satellite Name": "Test1 1459",
        "Satellite Number": 1459,
        "Semi-Major Axis(m)": 6980739.136638005,
        "Time(s)": 10
    }
]